[{"OBJECT_NAME":"ICEYE-X43","OBJECT_ID":"2024-149BZ","EPOCH":"2026-03-09T22:37:06.906720","MEAN_MOTION":14.99337202,"ECCENTRICITY":0.00024583,"INCLINATION":97.6823,"RA_OF_ASC_NODE":147.2527,"ARG_OF_PERICENTER":59.9226,"MEAN_ANOMALY":300.2241,"EPHEMERIS_TYPE":0,"CLASSIFICATION_TYPE":"U","NORAD_CAT_ID":60539,"ELEMENT_SET_NO":999,"REV_AT_EPOCH":8524,"BSTAR":0.00036668005,"MEAN_MOTION_DOT":4.424e-5,"MEAN_MOTION_DDOT":0},{"OBJECT_NAME":"STARLINK-35476","OBJECT_ID":"2025-280E","EPOCH":"2026-03-09T21:33:09.277920","MEAN_MOTION":14.98331795,"ECCENTRICITY":0.00026365,"INCLINATION":70.0019,"RA_OF_ASC_NODE":334.0691,"ARG_OF_PERICENTER":266.3265,"MEAN_ANOMALY":93.7592,"EPHEMERIS_TYPE":0,"CLASSIFICATION_TYPE":"U","NORAD_CAT_ID":66825,"ELEMENT_SET_NO":999,"REV_AT_EPOCH":1610,"BSTAR":0.00027541803,"MEAN_MOTION_DOT":3.195e-5,"MEAN_MOTION_DDOT":0}]
